[{"OBJECT_NAME":"STARLINK-33584","OBJECT_ID":"2025-015D","EPOCH":"2026-03-09T21:28:31.618560","MEAN_MOTION":15.30194261,"ECCENTRICITY":0.00012812,"INCLINATION":53.1619,"RA_OF_ASC_NODE":321.4267,"ARG_OF_PERICENTER":85.3339,"MEAN_ANOMALY":274.7808,"EPHEMERIS_TYPE":0,"CLASSIFICATION_TYPE":"U","NORAD_CAT_ID":62761,"ELEMENT_SET_NO":999,"REV_AT_EPOCH":6451,"BSTAR":0.0010987009,"MEAN_MOTION_DOT":0.00032317,"MEAN_MOTION_DDOT":0},{"OBJECT_NAME":"SL-12 R\/B(AUX MOTOR)","OBJECT_ID":"2005-050E","EPOCH":"2026-03-08T07:26:00.239136","MEAN_MOTION":4.2433482,"ECCENTRICITY":0.57510761,"INCLINATION":64.943,"RA_OF_ASC_NODE":98.713,"ARG_OF_PERICENTER":201.1527,"MEAN_ANOMALY":119.6164,"EPHEMERIS_TYPE":0,"CLASSIFICATION_TYPE":"U","NORAD_CAT_ID":28919,"ELEMENT_SET_NO":999,"REV_AT_EPOCH":31206,"BSTAR":0.00050180171,"MEAN_MOTION_DOT":2.02e-6,"MEAN_MOTION_DDOT":0}]
